ACS3                    
1 59588U 24077B   24218.70112063  .00000072  00000+0  11952-3 0  9991
2 59588  97.4034 275.3752 0019185 322.2152  37.7651 13.67695113 14170
